COSMOS 2433 (720)       
1 32275U 07052A   24199.25146856 -.00000061  00000+0  00000+0 0  9991
2 32275  65.9247 339.3857 0002596 204.2859 155.7045  2.13104148130144
COSMOS 2432 (719)       
1 32276U 07052B   24200.06438421 -.00000060  00000+0  00000+0 0  9995
2 32276  65.9393 339.4729 0007893 329.1917 240.5922  2.13103237130182
COSMOS 2434 (721)       
1 32393U 07065A   24201.23048244  .00000116  00000+0  00000+0 0  9990
2 32393  64.3209 215.4883 0000308 282.7183  47.8753  2.13103190128925
COSMOS 2436 (723)       
1 32395U 07065C   24200.26124403  .00000121  00000+0  00000+0 0  9992
2 32395  64.3294 215.5862 0016041 351.8688  90.3138  2.13102900128836
COSMOS 2456 (730)       
1 36111U 09070A   24200.36507859 -.00000015  00000+0  00000+0 0  9994
2 36111  64.6250  94.8870 0003664 326.9054 214.0030  2.13099172113538
COSMOS 2457 (733)       
1 36112U 09070B   24201.12939282 -.00000009  00000+0  00000+0 0  9992
2 36112  64.6100  94.7189 0003954 147.4498  33.1050  2.13101339113592
COSMOS 2460 (732)       
1 36402U 10007C   24200.11390847 -.00000061  00000+0  00000+0 0  9990
2 36402  65.7801 338.0174 0001639 122.1893 351.6106  2.13106302111839
COSMOS 2476 (744)       
1 37867U 11064A   24200.47479756 -.00000014  00000+0  00000+0 0  9994
2 37867  64.8978  96.5300 0022041 236.6577 300.5016  2.13101690 98873
COSMOS 2477 (745)       
1 37868U 11064B   24201.19077295 -.00000008  00000+0  00000+0 0  9990
2 37868  64.9052  96.5785 0019231 237.6249 307.0547  2.13103188 98874
COSMOS 2475 (743)       
1 37869U 11064C   24200.30465966 -.00000015  00000+0  00000+0 0  9997
2 37869  64.9119  96.6237 0024132 253.3649 289.7861  2.13102037 98874
COSMOS 2485 (747)       
1 39155U 13019A   24200.18578950 -.00000016  00000+0  00000+0 0  9994
2 39155  65.0552  97.1307 0022387 232.5839 127.2584  2.13101935 87389
COSMOS 2492 (754)       
1 39620U 14012A   24200.14107696 -.00000061  00000+0  00000+0 0  9996
2 39620  65.6615 337.5891 0010821 322.8324  37.0937  2.13103176 80341
COSMOS 2500 (755)       
1 40001U 14032A   24199.85078689 -.00000061  00000+0  00000+0 0  9997
2 40001  65.5989 337.4017 0007241 189.4733 170.5149  2.13105921 78559
COSMOS 2501 (702K)      
1 40315U 14075A   24198.22730065  .00000117  00000+0  00000+0 0  9996
2 40315  63.6224 214.6663 0021047 211.5610 148.3718  2.13101539 74914
COSMOS 2514 (751)       
1 41330U 16008A   24200.55607675 -.00000061  00000+0  00000+0 0  9991
2 41330  65.3932 336.8794 0010881 201.7845 158.1704  2.13102608 65736
COSMOS 2522 (752)       
1 42939U 17055A   24199.92711383  .00000121  00000+0  00000+0 0  9996
2 42939  64.0834 215.7155 0010412 241.5725 118.3854  2.13101998 53073
COSMOS 2527 (756)       
1 43508U 18053A   24200.82482848 -.00000011  00000+0  00000+0 0  9990
2 43508  65.2155  97.2677 0007419 231.5626 128.4197  2.13102347 47398
COSMOS 2529 (757)       
1 43687U 18086A   24199.98516396  .00000121  00000+0  00000+0 0  9995
2 43687  64.2990 216.2344 0011828 259.3467 100.5839  2.13102111 44385
COSMOS 2534 (758)       
1 44299U 19030A   24201.23327178  .00000116  00000+0  00000+0 0  9999
2 44299  64.3718 216.1486 0013625 278.3122  93.3711  2.13102262 40040
COSMOS 2544 (759)       
1 44850U 19088A   24200.29962219 -.00000015  00000+0  00000+0 0  9990
2 44850  65.2020  97.1218 0012552 257.3904 102.5160  2.13102130 35827
COSMOS 2545 (760)       
1 45358U 20018A   24200.96574528 -.00000061  00000+0  00000+0 0  9996
2 45358  64.7327 336.8505 0008700 234.6361 125.2836  2.13102533 33784
COSMOS 2547 (705K)      
1 46805U 20075A   24200.21434530  .00000121  00000+0  00000+0 0  9999
2 46805  64.6008 215.8336 0009024 241.9319 118.0400  2.13103056 29018
COSMOS 2557 (706K)      
1 52984U 22075A   24199.91026852 -.00000062  00000+0  00000+0 0  9999
2 52984  64.6601 339.0145 0010945 277.0562  82.8214  2.13102256 15818
COSMOS 2559 (707K)      
1 54031U 22130A   24199.85325700 -.00000063  00000+0  00000+0 0  9994
2 54031  64.6323 339.1329 0006433 213.0567 146.9054  2.13101498 13786
COSMOS 2564 (761)       
1 54377U 22161A   24200.51342305  .00000120  00000+0  00000+0 0  9990
2 54377  64.7422 215.9339 0011608 225.6123 134.3556  2.13102172 12742
COSMOS 2569 (703K)      
1 57517U 23114A   24200.06124272 -.00000017  00000+0  00000+0 0  9995
2 57517  64.9289  96.2679 0010447 297.9238  62.0175  2.13103833  7361
